OBJECT_NAME,OBJECT_ID,EPOCH,MEAN_MOTION,ECCENTRICITY,INCLINATION,RA_OF_ASC_NODE,ARG_OF_PERICENTER,MEAN_ANOMALY,EPHEMERIS_TYPE,CLASSIFICATION_TYPE,NORAD_CAT_ID,ELEMENT_SET_NO,REV_AT_EPOCH,BSTAR,MEAN_MOTION_DOT,MEAN_MOTION_DDOT
ONEWEB-0309,2021-075W,2026-06-06T20:06:11.835936,13.17647785,.0001737,87.9144,7.9221,102.0341,258.0985,0,U,49095,999,23221,.75338685E-4,.42E-6,0
ONEWEB-0310,2021-075X,2026-06-06T18:59:12.354144,13.12442744,.00017947,87.8942,352.7487,90.0385,270.0949,0,U,49096,999,23382,-.10405019E-2,-.362E-5,0
ONEWEB-0311,2021-075Y,2026-06-06T20:15:56.695680,13.17648755,.00022604,87.9146,7.9207,85.7085,274.4305,0,U,49097,999,23226,-.15411462E-3,-.47E-6,0
ONEWEB-0312,2021-075Z,2026-06-06T20:37:48.341856,13.17649178,.00020844,87.9140,7.9284,93.6899,266.4470,0,U,49098,999,23224,-.19168433E-3,-.62E-6,0
ONEWEB-0313,2021-075AA,2026-06-06T20:44:52.845792,13.17647796,.00019651,87.9139,7.9334,87.0806,273.0551,0,U,49099,999,23223,-.87977889E-3,-.329E-5,0
ONEWEB-0314,2021-075AB,2026-06-06T14:28:27.328512,13.17649096,.00021296,87.9152,7.9564,94.7986,265.3389,0,U,49100,999,23217,-.54343918E-3,-.198E-5,0
ONEWEB-0315,2021-075AC,2026-06-06T20:09:58.219488,13.12442619,.00021302,87.8951,352.7029,85.7191,274.4181,0,U,49101,999,23381,.14299807E-2,.527E-5,0
ONEWEB-0316,2021-075AD,2026-06-06T18:19:46.990848,13.18689742,.00020377,87.9202,337.5357,88.9443,271.1922,0,U,49102,999,23583,-.13794197E-2,-.531E-5,0
ONEWEB-0317,2021-075AE,2026-06-06T18:25:04.049472,13.12442435,.00011809,87.8952,352.7406,105.1588,254.9671,0,U,49103,999,23382,.10354304E-2,.385E-5,0
ONEWEB-0318,2021-075AF,2026-06-06T18:14:55.380480,13.18685563,.00020695,87.9168,337.5327,87.5750,272.5619,0,U,49104,999,23579,-.14759293E-3,-.45E-6,0
ONEWEB-0319,2021-075AG,2026-06-06T20:18:21.508992,13.17647808,.00023554,87.9142,7.9257,80.6450,279.4948,0,U,49105,999,23224,-.12349605E-3,-.35E-6,0
ONEWEB-0323,2021-075AH,2026-06-06T12:28:53.266944,13.12443673,.0002383,87.8947,352.7712,86.9671,273.1730,0,U,49106,999,23315,.91344E-3,.341E-5,0
ONEWEB-0329,2021-075AJ,2026-06-06T20:30:30.471840,13.17647540,.00019504,87.9144,7.9247,89.3287,270.8068,0,U,49107,999,23222,-.20959871E-3,-.68E-6,0
ONEWEB-0330,2021-075AK,2026-06-06T15:36:42.057792,13.17648807,.00019157,87.9144,7.9851,94.9928,265.1422,0,U,49108,999,23223,-.16346615E-3,-.51E-6,0
ONEWEB-0292,2021-083A,2026-06-06T17:30:05.033952,13.13469729,.0001983,87.8936,322.3226,91.5625,268.5731,0,U,49186,999,22955,-.37736865E-3,-.125E-5,0
ONEWEB-0303,2021-083B,2026-06-06T18:10:04.367136,13.18686101,.00020248,87.9159,337.5319,89.9881,270.1483,0,U,49187,999,22860,.11879986E-3,.6E-6,0
ONEWEB-0306,2021-083C,2026-06-06T17:55:29.970624,13.18686386,.00016347,87.9167,337.5216,94.9335,265.1984,0,U,49188,999,22864,.30404076E-3,.133E-5,0
ONEWEB-0307,2021-083D,2026-06-06T17:21:33.425856,13.13470201,.00019601,87.8950,322.3197,94.4193,265.7160,0,U,49189,999,22955,-.78910814E-3,-.275E-5,0
ONEWEB-0320,2021-083E,2026-06-06T18:24:37.128096,13.18684791,.00017948,87.9154,337.5368,91.2584,268.8754,0,U,49190,999,22860,-.10250502E-3,-.27E-6,0
ONEWEB-0321,2021-083F,2026-06-06T14:16:56.578656,13.20772015,.0001711,87.9187,276.5461,104.3690,255.7633,0,U,49191,999,23543,.28614E-3,.129E-5,0
ONEWEB-0322,2021-083G,2026-06-06T11:46:22.202400,13.13469661,.0001379,87.8950,322.3664,91.2121,268.9166,0,U,49192,999,22951,-.85848E-3,-.301E-5,0
ONEWEB-0324,2021-083H,2026-06-06T17:45:45.745920,13.18684560,.00018598,87.9168,337.5283,96.8712,263.2632,0,U,49193,999,22862,.12613808E-3,.63E-6,0
ONEWEB-0325,2021-083J,2026-06-06T17:50:37.906656,13.18685335,.00018287,87.9159,337.5370,88.3307,271.8035,0,U,49194,999,22863,-.14191853E-3,-.43E-6,0
ONEWEB-0326,2021-083K,2026-06-06T18:12:40.911840,13.18684612,.00020914,87.9168,337.5307,87.8864,272.2508,0,U,49195,999,22862,-.47431631E-4,-.6E-7,0
ONEWEB-0327,2021-083L,2026-06-06T18:12:16.762176,13.18686988,.00021041,87.9160,337.5362,81.7704,278.3667,0,U,49196,999,22864,.19704674E-4,.21E-6,0
ONEWEB-0328,2021-083M,2026-06-06T17:00:49.740192,13.13469320,.00018859,87.8956,322.2950,99.0885,261.0458,0,U,49197,999,22952,-.64495533E-3,-.223E-5,0
ONEWEB-0331,2021-083N,2026-06-06T18:02:46.997376,13.18685816,.00021655,87.9166,337.5257,89.2129,270.9252,0,U,49198,999,22863,-.24431765E-4,.3E-7,0
ONEWEB-0333,2021-083P,2026-06-06T16:53:30.828192,13.13469310,.00018008,87.8947,322.3235,92.3336,267.8000,0,U,49199,999,22953,-.39132697E-3,-.13E-5,0
ONEWEB-0334,2021-083Q,2026-06-06T01:58:45.484896,13.20773307,.0000951,87.9174,276.6605,106.1655,253.9583,0,U,49200,999,23532,.89145E-4,.49E-6,0
ONEWEB-0335,2021-083R,2026-06-06T16:46:12.763776,13.13469818,.00019996,87.8948,322.3214,93.7373,266.3984,0,U,49201,999,22954,-.51347547E-4,-.6E-7,0
