ONEWEB-0309             
1 49095U 21075W   26157.83763699  .00000042  00000+0  75339-4 0  9990
2 49095  87.9144   7.9221 0001737 102.0341 258.0985 13.17647785232218
ONEWEB-0310             
1 49096U 21075X   26157.79111521 -.00000362  00000+0 -10405-2 0  9995
2 49096  87.8942 352.7487 0001794  90.0385 270.0949 13.12442744233821
ONEWEB-0311             
1 49097U 21075Y   26157.84440620 -.00000047  00000+0 -15411-3 0  9990
2 49097  87.9146   7.9207 0002260  85.7085 274.4305 13.17648755232261
ONEWEB-0312             
1 49098U 21075Z   26157.85958729 -.00000062  00000+0 -19168-3 0  9996
2 49098  87.9140   7.9284 0002084  93.6899 266.4470 13.17649178232248
ONEWEB-0313             
1 49099U 21075AA  26157.86450053 -.00000329  00000+0 -87978-3 0  9995
2 49099  87.9139   7.9334 0001965  87.0806 273.0551 13.17647796232232
ONEWEB-0314             
1 49100U 21075AB  26157.60309408 -.00000198  00000+0 -54344-3 0  9992
2 49100  87.9152   7.9564 0002129  94.7986 265.3389 13.17649096232173
ONEWEB-0315             
1 49101U 21075AC  26157.84025717  .00000527  00000+0  14300-2 0  9998
2 49101  87.8951 352.7029 0002130  85.7191 274.4181 13.12442619233817
ONEWEB-0316             
1 49102U 21075AD  26157.76373832 -.00000531  00000+0 -13794-2 0  9997
2 49102  87.9202 337.5357 0002037  88.9443 271.1922 13.18689742235831
ONEWEB-0317             
1 49103U 21075AE  26157.76740798  .00000385  00000+0  10354-2 0  9991
2 49103  87.8952 352.7406 0001180 105.1588 254.9671 13.12442435233824
ONEWEB-0318             
1 49104U 21075AF  26157.76036320 -.00000045  00000+0 -14759-3 0  9990
2 49104  87.9168 337.5327 0002069  87.5750 272.5619 13.18685563235792
ONEWEB-0319             
1 49105U 21075AG  26157.84608228 -.00000035  00000+0 -12350-3 0  9996
2 49105  87.9142   7.9257 0002355  80.6450 279.4948 13.17647808232241
ONEWEB-0323             
1 49106U 21075AH  26157.52006096  .00000341  00000+0  91344-3 0  9995
2 49106  87.8947 352.7712 0002383  86.9671 273.1730 13.12443673233156
ONEWEB-0329             
1 49107U 21075AJ  26157.85451935 -.00000068  00000+0 -20960-3 0  9992
2 49107  87.9144   7.9247 0001950  89.3287 270.8068 13.17647540232227
ONEWEB-0330             
1 49108U 21075AK  26157.65048678 -.00000051  00000+0 -16347-3 0  9993
2 49108  87.9144   7.9851 0001915  94.9928 265.1422 13.17648807232233
ONEWEB-0292             
1 49186U 21083A   26157.72922493 -.00000125  00000+0 -37737-3 0  9990
2 49186  87.8936 322.3226 0001983  91.5625 268.5731 13.13469729229550
ONEWEB-0303             
1 49187U 21083B   26157.75699499  .00000060  00000+0  11880-3 0  9998
2 49187  87.9159 337.5319 0002024  89.9881 270.1483 13.18686101228600
ONEWEB-0306             
1 49188U 21083C   26157.74687466  .00000133  00000+0  30404-3 0  9993
2 49188  87.9167 337.5216 0001634  94.9335 265.1984 13.18686386228641
ONEWEB-0307             
1 49189U 21083D   26157.72330354 -.00000275  00000+0 -78911-3 0  9997
2 49189  87.8950 322.3197 0001960  94.4193 265.7160 13.13470201229555
ONEWEB-0320             
1 49190U 21083E   26157.76709639 -.00000027  00000+0 -10251-3 0  9997
2 49190  87.9154 337.5368 0001794  91.2584 268.8754 13.18684791228600
ONEWEB-0321             
1 49191U 21083F   26157.59509929  .00000129  00000+0  28614-3 0  9992
2 49191  87.9187 276.5461 0001711 104.3690 255.7633 13.20772015235436
ONEWEB-0322             
1 49192U 21083G   26157.49053475 -.00000301  00000+0 -85848-3 0  9998
2 49192  87.8950 322.3664 0001379  91.2121 268.9166 13.13469661229513
ONEWEB-0324             
1 49193U 21083H   26157.74011280  .00000063  00000+0  12614-3 0  9999
2 49193  87.9168 337.5283 0001859  96.8712 263.2632 13.18684560228620
ONEWEB-0325             
1 49194U 21083J   26157.74349429 -.00000043  00000+0 -14192-3 0  9992
2 49194  87.9159 337.5370 0001828  88.3307 271.8035 13.18685335228634
ONEWEB-0326             
1 49195U 21083K   26157.75880685 -.00000006  00000+0 -47432-4 0  9991
2 49195  87.9168 337.5307 0002091  87.8864 272.2508 13.18684612228626
ONEWEB-0327             
1 49196U 21083L   26157.75852734  .00000021  00000+0  19705-4 0  9993
2 49196  87.9160 337.5362 0002104  81.7704 278.3667 13.18686988228644
ONEWEB-0328             
1 49197U 21083M   26157.70890903 -.00000223  00000+0 -64496-3 0  9991
2 49197  87.8956 322.2950 0001885  99.0885 261.0458 13.13469320229527
ONEWEB-0331             
1 49198U 21083N   26157.75193284  .00000003  00000+0 -24432-4 0  9997
2 49198  87.9166 337.5257 0002165  89.2129 270.9252 13.18685816228632
ONEWEB-0333             
1 49199U 21083P   26157.70382903 -.00000130  00000+0 -39133-3 0  9996
2 49199  87.8947 322.3235 0001800  92.3336 267.8000 13.13469310229537
ONEWEB-0334             
1 49200U 21083Q   26157.08247089  .00000049  00000+0  89145-4 0  9991
2 49200  87.9174 276.6605 0000951 106.1655 253.9583 13.20773307235327
ONEWEB-0335             
1 49201U 21083R   26157.69875884 -.00000006  00000+0 -51348-4 0  9998
2 49201  87.8948 322.3214 0001999  93.7373 266.3984 13.13469818229543
